QIANFAN-25              
1 61558U 24185G   25265.58226080  .00000575  00000+0  34383-3 0  9996
2 61558  88.9737  87.3780 0008564 184.0611 176.0503 14.05794433 58102
QIANFAN-26              
1 61559U 24185H   25265.55387722  .00000345  00000+0  33270-3 0  9994
2 61559  88.9743  88.5178 0003769 251.5641 108.5116 13.77743242 57490
QIANFAN-27              
1 61560U 24185J   25265.56183441  .00000788  00000+0  31693-3 0  9997
2 61560  88.9739  86.4654 0007730 179.8617 180.2581 14.27171288 58585
QIANFAN-28              
1 61561U 24185K   25265.58100384  .00001270  00000+0  50868-3 0  9997
2 61561  88.9755  86.4602 0006824 178.7161 181.4052 14.27767255 58594
QIANFAN-29              
1 61562U 24185L   25265.56507046  .00000211  00000+0  30904-3 0  9995
2 61562  88.9720  89.7035 0008383 290.3473  69.6777 13.50968361 56834
QIANFAN-30              
1 61563U 24185M   25265.55261664  .00000218  00000+0  32376-3 0  9990
2 61563  88.9739  89.1989 0005716 271.6861  88.3634 13.49946154 57113
QIANFAN-31              
1 61564U 24185N   25265.55534449  .00000238  00000+0  31367-3 0  9996
2 61564  88.9724  89.1292 0005282 267.8902  92.1649 13.57918338 57140
QIANFAN-32              
1 61565U 24185P   25265.56605325  .00000212  00000+0  31192-3 0  9998
2 61565  88.9783  89.3072 0007773 303.3534  56.6872 13.50698226 57088
